STARLINK-5010           
1 53930U 22119AW  26077.83335647  .00043309  00000+0  23876-2 0  9992
2 53930  53.2171 262.7360 0001585  80.2132 161.5688 15.13589770  5727
STARLINK-4772           
1 53932U 22119AY  26077.76199032  .00000607  00000+0  56203-4 0  9998
2 53932  53.2158 258.4851 0001193  94.1264 265.9864 15.08839886193415
STARLINK-4782           
1 53933U 22119AZ  26077.80750326  .00000715  00000+0  63036-4 0  9995
2 53933  53.2175 263.0471 0001389  91.3352 268.7799 15.08837159193340
STARLINK-4775           
1 53934U 22119BA  26077.89078301  .00001001  00000+0  80973-4 0  9999
2 53934  53.2165 257.8644 0001261  89.4228 270.6909 15.08843265193443
STARLINK-5000           
1 53935U 22119BB  26077.83335647  .00060446  00000+0  30607-2 0  9998
2 53935  53.2166 247.7461 0001245 116.8670 134.1539 15.16447723  5834
STARLINK-4791           
1 53936U 22119BC  26077.79506722  .00000805  00000+0  68677-4 0  9991
2 53936  53.2170 257.9802 0001246  90.7282 269.3852 15.08837696193427
STARLINK-4633           
1 53964U 22125A   26077.59042013  .00000293  00000+0  36483-4 0  9996
2 53964  53.2211 184.3198 0001131  66.2012 293.9098 15.08831597190669
STARLINK-4578           
1 53965U 22125B   26077.83335647  .00970631  00000+0  51758-2 0  9994
2 53965  53.2185 172.1892 0002584  18.7826  89.8287 15.77611010  5900
STARLINK-4635           
1 53966U 22125C   26077.58304623  .00000918  00000+0  75746-4 0  9994
2 53966  53.2149 184.2711 0001413  89.9235 270.1919 15.08842351190662
STARLINK-4634           
1 53967U 22125D   26077.71184146 -.00000238  00000+0  31306-5 0  9997
2 53967  53.2190 183.6553 0001436  95.3323 264.7833 15.08840902190686
STARLINK-4629           
1 53968U 22125E   26077.70079403  .00004962  00000+0  32977-3 0  9996
2 53968  53.2168 183.5852 0001503 102.7021 257.4139 15.08821534190684
STARLINK-4468           
1 53969U 22125F   26077.57567422  .00000804  00000+0  68617-4 0  9997
2 53969  53.2144 184.2250 0001243  90.1143 269.9992 15.08834669190661
STARLINK-4567           
1 53970U 22125G   26077.57797964  .00001052  00000+0  84205-4 0  9992
2 53970  53.2178 179.2606 0002365  82.4452 277.6809 15.08844189190742
STARLINK-5156           
1 53973U 22125K   26077.56462232 -.00000140  00000+0  92619-5 0  9998
2 53973  53.2152 184.1584 0001101  92.6010 267.5108 15.08838752190667
STARLINK-5159           
1 53974U 22125L   26077.53330591  .00001093  00000+0  86717-4 0  9996
2 53974  53.2166 164.0232 0001001  76.2059 283.9044 15.08845181190946
STARLINK-5137           
1 53975U 22125M   26077.53376671  .00000279  00000+0  35588-4 0  9991
2 53975  53.2172 178.9956 0001110  87.5877 272.5243 15.08839378190738
STARLINK-5134           
1 53976U 22125N   26077.51496214 -.00005150  00000+0 -30553-3 0  9997
2 53976  53.2150 164.6217 0001080  90.4733 269.6383 15.08860754190933
