[{"OBJECT_NAME":"STARLINK-5010","OBJECT_ID":"2022-119AW","EPOCH":"2026-03-18T20:00:01.999008","MEAN_MOTION":15.1358977,"ECCENTRICITY":0.0001585,"INCLINATION":53.2171,"RA_OF_ASC_NODE":262.736,"ARG_OF_PERICENTER":80.2132,"MEAN_ANOMALY":161.5688,"EPHEMERIS_TYPE":0,"CLASSIFICATION_TYPE":"U","NORAD_CAT_ID":53930,"ELEMENT_SET_NO":999,"REV_AT_EPOCH":572,"BSTAR":0.0023876,"MEAN_MOTION_DOT":0.00043309,"MEAN_MOTION_DDOT":0},{"OBJECT_NAME":"STARLINK-4772","OBJECT_ID":"2022-119AY","EPOCH":"2026-03-18T18:17:15.963648","MEAN_MOTION":15.08839886,"ECCENTRICITY":0.0001193,"INCLINATION":53.2158,"RA_OF_ASC_NODE":258.4851,"ARG_OF_PERICENTER":94.1264,"MEAN_ANOMALY":265.9864,"EPHEMERIS_TYPE":0,"CLASSIFICATION_TYPE":"U","NORAD_CAT_ID":53932,"ELEMENT_SET_NO":999,"REV_AT_EPOCH":19341,"BSTAR":5.6203e-5,"MEAN_MOTION_DOT":6.07e-6,"MEAN_MOTION_DDOT":0},{"OBJECT_NAME":"STARLINK-4782","OBJECT_ID":"2022-119AZ","EPOCH":"2026-03-18T19:22:48.281664","MEAN_MOTION":15.08837159,"ECCENTRICITY":0.0001389,"INCLINATION":53.2175,"RA_OF_ASC_NODE":263.0471,"ARG_OF_PERICENTER":91.3352,"MEAN_ANOMALY":268.7799,"EPHEMERIS_TYPE":0,"CLASSIFICATION_TYPE":"U","NORAD_CAT_ID":53933,"ELEMENT_SET_NO":999,"REV_AT_EPOCH":19334,"BSTAR":6.3036e-5,"MEAN_MOTION_DOT":7.15e-6,"MEAN_MOTION_DDOT":0},{"OBJECT_NAME":"STARLINK-4775","OBJECT_ID":"2022-119BA","EPOCH":"2026-03-18T21:22:43.652064","MEAN_MOTION":15.08843265,"ECCENTRICITY":0.0001261,"INCLINATION":53.2165,"RA_OF_ASC_NODE":257.8644,"ARG_OF_PERICENTER":89.4228,"MEAN_ANOMALY":270.6909,"EPHEMERIS_TYPE":0,"CLASSIFICATION_TYPE":"U","NORAD_CAT_ID":53934,"ELEMENT_SET_NO":999,"REV_AT_EPOCH":19344,"BSTAR":8.0973e-5,"MEAN_MOTION_DOT":1.001e-5,"MEAN_MOTION_DDOT":0},{"OBJECT_NAME":"STARLINK-5000","OBJECT_ID":"2022-119BB","EPOCH":"2026-03-18T20:00:01.999008","MEAN_MOTION":15.16447723,"ECCENTRICITY":0.0001245,"INCLINATION":53.2166,"RA_OF_ASC_NODE":247.7461,"ARG_OF_PERICENTER":116.867,"MEAN_ANOMALY":134.1539,"EPHEMERIS_TYPE":0,"CLASSIFICATION_TYPE":"U","NORAD_CAT_ID":53935,"ELEMENT_SET_NO":999,"REV_AT_EPOCH":583,"BSTAR":0.0030607,"MEAN_MOTION_DOT":0.00060446,"MEAN_MOTION_DDOT":0},{"OBJECT_NAME":"STARLINK-4791","OBJECT_ID":"2022-119BC","EPOCH":"2026-03-18T19:04:53.807808","MEAN_MOTION":15.08837696,"ECCENTRICITY":0.0001246,"INCLINATION":53.217,"RA_OF_ASC_NODE":257.9802,"ARG_OF_PERICENTER":90.7282,"MEAN_ANOMALY":269.3852,"EPHEMERIS_TYPE":0,"CLASSIFICATION_TYPE":"U","NORAD_CAT_ID":53936,"ELEMENT_SET_NO":999,"REV_AT_EPOCH":19342,"BSTAR":6.8677e-5,"MEAN_MOTION_DOT":8.05e-6,"MEAN_MOTION_DDOT":0},{"OBJECT_NAME":"STARLINK-4633","OBJECT_ID":"2022-125A","EPOCH":"2026-03-18T14:10:12.299232","MEAN_MOTION":15.08831597,"ECCENTRICITY":0.0001131,"INCLINATION":53.2211,"RA_OF_ASC_NODE":184.3198,"ARG_OF_PERICENTER":66.2012,"MEAN_ANOMALY":293.9098,"EPHEMERIS_TYPE":0,"CLASSIFICATION_TYPE":"U","NORAD_CAT_ID":53964,"ELEMENT_SET_NO":999,"REV_AT_EPOCH":19066,"BSTAR":3.6483e-5,"MEAN_MOTION_DOT":2.93e-6,"MEAN_MOTION_DDOT":0},{"OBJECT_NAME":"STARLINK-4578","OBJECT_ID":"2022-125B","EPOCH":"2026-03-18T20:00:01.999008","MEAN_MOTION":15.7761101,"ECCENTRICITY":0.0002584,"INCLINATION":53.2185,"RA_OF_ASC_NODE":172.1892,"ARG_OF_PERICENTER":18.7826,"MEAN_ANOMALY":89.8287,"EPHEMERIS_TYPE":0,"CLASSIFICATION_TYPE":"U","NORAD_CAT_ID":53965,"ELEMENT_SET_NO":999,"REV_AT_EPOCH":590,"BSTAR":0.0051758,"MEAN_MOTION_DOT":0.00970631,"MEAN_MOTION_DDOT":0},{"OBJECT_NAME":"STARLINK-4635","OBJECT_ID":"2022-125C","EPOCH":"2026-03-18T13:59:35.194272","MEAN_MOTION":15.08842351,"ECCENTRICITY":0.0001413,"INCLINATION":53.2149,"RA_OF_ASC_NODE":184.2711,"ARG_OF_PERICENTER":89.9235,"MEAN_ANOMALY":270.1919,"EPHEMERIS_TYPE":0,"CLASSIFICATION_TYPE":"U","NORAD_CAT_ID":53966,"ELEMENT_SET_NO":999,"REV_AT_EPOCH":19066,"BSTAR":7.5746e-5,"MEAN_MOTION_DOT":9.18e-6,"MEAN_MOTION_DDOT":0},{"OBJECT_NAME":"STARLINK-4634","OBJECT_ID":"2022-125D","EPOCH":"2026-03-18T17:05:03.102144","MEAN_MOTION":15.08840902,"ECCENTRICITY":0.0001436,"INCLINATION":53.219,"RA_OF_ASC_NODE":183.6553,"ARG_OF_PERICENTER":95.3323,"MEAN_ANOMALY":264.7833,"EPHEMERIS_TYPE":0,"CLASSIFICATION_TYPE":"U","NORAD_CAT_ID":53967,"ELEMENT_SET_NO":999,"REV_AT_EPOCH":19068,"BSTAR":3.1306e-6,"MEAN_MOTION_DOT":-2.38e-6,"MEAN_MOTION_DDOT":0},{"OBJECT_NAME":"STARLINK-4629","OBJECT_ID":"2022-125E","EPOCH":"2026-03-18T16:49:08.604192","MEAN_MOTION":15.08821534,"ECCENTRICITY":0.0001503,"INCLINATION":53.2168,"RA_OF_ASC_NODE":183.5852,"ARG_OF_PERICENTER":102.7021,"MEAN_ANOMALY":257.4139,"EPHEMERIS_TYPE":0,"CLASSIFICATION_TYPE":"U","NORAD_CAT_ID":53968,"ELEMENT_SET_NO":999,"REV_AT_EPOCH":19068,"BSTAR":0.00032977,"MEAN_MOTION_DOT":4.962e-5,"MEAN_MOTION_DDOT":0},{"OBJECT_NAME":"STARLINK-4468","OBJECT_ID":"2022-125F","EPOCH":"2026-03-18T13:48:58.252608","MEAN_MOTION":15.08834669,"ECCENTRICITY":0.00012431,"INCLINATION":53.2144,"RA_OF_ASC_NODE":184.225,"ARG_OF_PERICENTER":90.1143,"MEAN_ANOMALY":269.9992,"EPHEMERIS_TYPE":0,"CLASSIFICATION_TYPE":"U","NORAD_CAT_ID":53969,"ELEMENT_SET_NO":999,"REV_AT_EPOCH":19066,"BSTAR":6.8617235e-5,"MEAN_MOTION_DOT":8.04e-6,"MEAN_MOTION_DDOT":0},{"OBJECT_NAME":"STARLINK-4567","OBJECT_ID":"2022-125G","EPOCH":"2026-03-18T13:52:17.440896","MEAN_MOTION":15.08844189,"ECCENTRICITY":0.0002365,"INCLINATION":53.2178,"RA_OF_ASC_NODE":179.2606,"ARG_OF_PERICENTER":82.4452,"MEAN_ANOMALY":277.6809,"EPHEMERIS_TYPE":0,"CLASSIFICATION_TYPE":"U","NORAD_CAT_ID":53970,"ELEMENT_SET_NO":999,"REV_AT_EPOCH":19074,"BSTAR":8.4205e-5,"MEAN_MOTION_DOT":1.052e-5,"MEAN_MOTION_DDOT":0},{"OBJECT_NAME":"STARLINK-5156","OBJECT_ID":"2022-125K","EPOCH":"2026-03-18T13:33:03.368448","MEAN_MOTION":15.08838752,"ECCENTRICITY":0.0001101,"INCLINATION":53.2152,"RA_OF_ASC_NODE":184.1584,"ARG_OF_PERICENTER":92.601,"MEAN_ANOMALY":267.5108,"EPHEMERIS_TYPE":0,"CLASSIFICATION_TYPE":"U","NORAD_CAT_ID":53973,"ELEMENT_SET_NO":999,"REV_AT_EPOCH":19066,"BSTAR":9.261948e-6,"MEAN_MOTION_DOT":-1.4e-6,"MEAN_MOTION_DDOT":0},{"OBJECT_NAME":"STARLINK-5159","OBJECT_ID":"2022-125L","EPOCH":"2026-03-18T12:47:57.630624","MEAN_MOTION":15.08845181,"ECCENTRICITY":0.00010015,"INCLINATION":53.2166,"RA_OF_ASC_NODE":164.0232,"ARG_OF_PERICENTER":76.2059,"MEAN_ANOMALY":283.9044,"EPHEMERIS_TYPE":0,"CLASSIFICATION_TYPE":"U","NORAD_CAT_ID":53974,"ELEMENT_SET_NO":999,"REV_AT_EPOCH":19094,"BSTAR":8.6717135e-5,"MEAN_MOTION_DOT":1.093e-5,"MEAN_MOTION_DDOT":0},{"OBJECT_NAME":"STARLINK-5137","OBJECT_ID":"2022-125M","EPOCH":"2026-03-18T12:48:37.443744","MEAN_MOTION":15.08839378,"ECCENTRICITY":0.00011108,"INCLINATION":53.2172,"RA_OF_ASC_NODE":178.9956,"ARG_OF_PERICENTER":87.5877,"MEAN_ANOMALY":272.5243,"EPHEMERIS_TYPE":0,"CLASSIFICATION_TYPE":"U","NORAD_CAT_ID":53975,"ELEMENT_SET_NO":999,"REV_AT_EPOCH":19073,"BSTAR":3.5587707e-5,"MEAN_MOTION_DOT":2.79e-6,"MEAN_MOTION_DDOT":0},{"OBJECT_NAME":"STARLINK-5134","OBJECT_ID":"2022-125N","EPOCH":"2026-03-18T12:21:32.728896","MEAN_MOTION":15.08860754,"ECCENTRICITY":0.00010808,"INCLINATION":53.215,"RA_OF_ASC_NODE":164.6217,"ARG_OF_PERICENTER":90.4733,"MEAN_ANOMALY":269.6383,"EPHEMERIS_TYPE":0,"CLASSIFICATION_TYPE":"U","NORAD_CAT_ID":53976,"ELEMENT_SET_NO":999,"REV_AT_EPOCH":19093,"BSTAR":-0.00030553447,"MEAN_MOTION_DOT":-5.15e-5,"MEAN_MOTION_DDOT":0}]
